SL-3 R/B                
1 19046U 88032B   17290.88955176  .00000018  00000-0  59174-5 0  9999
2 19046  97.5121 334.1710 0037231 277.1779  82.5214 15.02290928590770
SL-16 R/B               
1 19120U 88039B   17290.94700115 -.00000161  00000-0 -53881-4 0  9996
2 19120  71.0150  65.5353 0022202 354.0178   6.0678 14.19176906523801
COSMOS 1953             
1 19210U 88050A   17291.53457550  .00000137  00000-0  74920-5 0  9996
2 19210  82.5144 273.7795 0013066 191.7022 168.3903 15.05389198596398
SL-8 R/B                
1 19257U 88053B   17290.58810792  .00000071  00000-0  32612-4 0  9993
2 19257  74.0504 351.5193 0021069 215.0824 299.8411 14.37377051536357
COSMOS 1975             
1 19573U 88093A   17290.86992535  .00000226  00000-0  14190-4 0  9998
2 19573  82.5216 226.7699 0012846 237.3645 122.6342 15.04294557578252
SL-14 R/B               
1 19574U 88093B   17291.52776569  .00000082  00000-0  70471-5 0  9995
2 19574  82.5352  29.7493 0023122  71.5023   2.6980 14.83238469567736
SL-16 R/B               
1 19650U 88102B   17291.08899330 -.00000237  00000-0 -96240-4 0  9999
2 19650  70.9974 116.6681 0014767 346.5782  13.4946 14.15763477493387
INTERCOSMOS 24          
1 20261U 89080A   17291.50023044  .00000362  00000-0  10200-3 0  9991
2 20261  82.5906 290.0419 1204192 172.3231 189.8315 12.55921136281445
SL-14 R/B               
1 20262U 89080C   17290.83470449  .00000086  00000-0  23464-4 0  9992
2 20262  82.5947 337.5543 1236935 337.0281  17.9728 12.48874672277450
DELTA 1 R/B             
1 20323U 89089B   17291.17460974  .00000063  00000-0  25437-4 0  9996
2 20323  97.1169 217.6727 0073165  54.4086 306.3899 14.48220771472520
DELTA 2 R/B(1)          
1 20453U 90008B   17291.16283504  .00001465  00000-0  86793-4 0  9993
2 20453  35.6241 227.5962 0287014 111.4033 251.7553 14.83639899466470
COSMOS 2058             
1 20465U 90010A   17291.09611409  .00000425  00000-0  34033-4 0  9995
2 20465  82.4872 129.6907 0014264 238.2021 121.7813 14.97595307503730
SL-14 R/B               
1 20466U 90010B   17290.91036945  .00000088  00000-0  82326-5 0  9996
2 20466  82.5018 257.7668 0019134 297.6848  62.2424 14.81298777474602
SL-14 R/B               
1 20511U 90018B   17290.82550826  .00000090  00000-0  87990-5 0  9999
2 20511  82.5258 199.9015 0019023  72.4454   0.9321 14.79956863490204
HST                     
1 20580U 90037B   17290.39260990  .00000738  00000-0  34512-4 0  9998
2 20580  28.4697 279.9519 0002895  51.9667  66.4827 15.08889044308767
SL-16 R/B               
1 20625U 90046B   17290.96309564 -.00000320  00000-0 -14143-3 0  9998
2 20625  70.9984 251.4543 0016858 279.4472  80.4745 14.14620800414947
COSMOS 2084             
1 20663U 90055A   17290.90893170  .00000285  00000-0  41397-4 0  9995
2 20663  62.7919 178.4975 0138440 102.0420 259.6227 14.91688144478102
SL-6 R/B(2)             
1 20666U 90055D   17291.00937824  .00000246  00000-0  39001-4 0  9991
2 20666  62.7832  96.6441 0122913 121.4689 239.8487 14.92017823479502
SL-8 R/B                
1 20775U 90078B   17290.46841821  .00003235  00000-0  16196-3 0  9997
2 20775  82.9267 307.9252 0585069 325.5523  30.8993 14.31314156366256
SL-8 R/B                
1 21088U 91006B   17291.52585941  .00000136  00000-0  12229-3 0  9993
2 21088  82.9388 288.5414 0021966 338.6478 170.8217 13.77072775342577
OKEAN-3                 
1 21397U 91039A   17290.81209474  .00000359  00000-0  32359-4 0  9991
2 21397  82.5250  21.9263 0017923 182.3812 177.7326 14.92561624428070
COSMOS 2151             
1 21422U 91042A   17291.14348924  .00000244  00000-0  21587-4 0  9999
2 21422  82.4981 129.4510 0012890 241.4060 118.5863 14.91876632426836
SL-14 R/B               
1 21423U 91042B   17290.79666095  .00000066  00000-0  57784-5 0  9993
2 21423  82.4966 206.8346 0016863 204.3735 155.6683 14.79709258420716
ERS-1                   
1 21574U 91050A   17290.48352816  .00000055  00000-0  32763-4 0  9995
2 21574  98.4719 235.7673 0032210 311.4911  48.3512 14.37614584375157
ARIANE 40 R/B           
1 21610U 91050F   17291.15622368  .00000037  00000-0  25731-4 0  9990
2 21610  98.5911 348.3789 0002132 306.5240  77.4168 14.40813131377821
INTERCOSMOS 25          
1 21819U 91086A   17291.46023416  .00000929  00000-0  17998-3 0  9998
2 21819  82.5743 348.9471 1522310 184.5630 174.0082 12.04670194127128
SL-14 R/B               
1 21820U 91086B   17290.83940634  .00000097  00000-0  14667-4 0  9997
2 21820  82.5640  46.1316 1577328  18.7762 346.5288 11.93339034121416
SL-8 R/B                
1 21876U 92008B   17290.90984872  .00000025  00000-0  95053-5 0  9993
2 21876  82.9304  25.9970 0035788  53.2822  83.6131 13.75608367288025
SL-8 R/B                
1 21938U 92020B   17290.51917205 -.00000055  00000-0 -73440-4 0  9999
2 21938  82.9270 269.6306 0028452 208.4636 288.0521 13.75252812279803
SL-16 R/B               
1 22220U 92076B   17290.85316161 -.00000079  00000-0 -15469-4 0  9999
2 22220  70.9991 161.0444 0010616  85.1080 331.4095 14.16419788287811
SL-16 R/B               
1 22285U 92093B   17291.52167922  .00000209  00000-0  13234-3 0  9993
2 22285  71.0215 313.5567 0006373 289.4712  70.5722 14.15017536279980
COSMOS 2228             
1 22286U 92094A   17290.86325121  .00000265  00000-0  26044-4 0  9994
2 22286  82.5189 258.4186 0022890  75.4704 284.9050 14.87855831340732
SL-16 R/B               
1 22566U 93016B   17290.79185732 -.00000036  00000-0  60116-5 0  9990
2 22566  71.0065 169.5704 0012153 300.4706  59.5216 14.14947963268615
COSMOS 2242             
1 22626U 93024A   17291.48978795  .00000262  00000-0  25852-4 0  9999
2 22626  82.5191 285.5675 0020615  73.1840 287.1636 14.87718237324483
SL-16 R/B               
1 22803U 93059B   17291.21746667  .00000040  00000-0  43844-4 0  9991
2 22803  70.9917 350.1852 0018152 205.3455 154.6780 14.16779926245706
ARIANE 40 R/B           
1 22830U 93061H   17291.15662850 -.00000025  00000-0  82114-5 0  9996
2 22830  98.8799 309.3463 0009868 290.9849  69.0277 14.31412266255831
COSMOS 2278             
1 23087U 94023A   17290.75086884 -.00000073  00000-0 -13707-4 0  9997
2 23087  71.0501 102.8152 0008018  14.9061 345.2296 14.13746973211812
SL-16 R/B               
1 23088U 94023B   17290.81283829  .00000097  00000-0  75325-4 0  9991
2 23088  71.0016  24.6820 0005497 271.3897  88.6596 14.14656494212889
SL-16 R/B               
1 23343U 94074B   17290.59594164  .00000003  00000-0  80379-5 0  9996
2 23343  98.1406 328.8157 0007849  48.6560 102.5478 14.76712807234892
SL-16 R/B               
1 23405U 94077B   17291.54773246  .00000137  00000-0  95361-4 0  9998
2 23405  70.9822 316.0336 0001979 192.6252 167.4821 14.15197987182966
ERS-2                   
1 23560U 95021A   17290.47538393  .00001915  00000-0  90028-4 0  9993
2 23560  98.5594 299.3276 0002375 238.6872 121.4128 15.21114017193970
ARIANE 40+ R/B          
1 23561U 95021B   17291.09108307  .00000054  00000-0  33456-4 0  9996
2 23561  98.7970 295.1429 0005902 253.4244 150.5467 14.37837263178919
SL-16 R/B               
1 23705U 95058B   17291.09354434  .00000319  00000-0  18863-3 0  9998
2 23705  71.0201 131.1711 0010570 114.7587 245.4637 14.15104021134571
SL-16 R/B               
1 24298U 96051B   17291.23264966 -.00000105  00000-0 -30247-4 0  9992
2 24298  70.8472 162.8046 0015335 349.1257  10.9529 14.12487276 89195
ORBVIEW 2 (SEASTAR)     
1 24883U 97037A   17291.39155575  .00000026  00000-0  25275-4 0  9994
2 24883  98.5500  38.4622 0003497 100.7648 259.3930 14.33415588 69556
SL-16 R/B               
1 25400U 98043G   17290.91519905 -.00000004  00000-0  16363-4 0  9991
2 25400  98.5013 235.2867 0008876 300.8041  59.2265 14.25420479  2321
SL-16 R/B               
1 25407U 98045B   17291.16023849 -.00000273  00000-0 -11490-3 0  9999
2 25407  71.0098 143.0096 0007452   1.9023 358.2127 14.15767301993588
ISS (ZARYA)             
1 25544U 98067A   17291.76080973  .00001326  00000-0  27236-4 0  9996
2 25544  51.6393 142.2979 0005366  34.8629  17.2594 15.54203374 80971
SL-8 R/B                
1 25723U 99022C   17290.31988475  .00009580  00000-0  14075-3 0  9997
2 25723  48.4151 235.4252 0009832 262.8569  97.1259 15.56045699 25502
CZ-4B R/B               
1 25732U 99025C   17291.49391108 -.00000001  00000-0  21702-4 0  9997
2 25732  98.9959 294.7618 0038401 100.2653  20.6259 14.17638491954107
OKEAN-O                 
1 25860U 99039A   17291.48158341  .00000059  00000-0  16163-4 0  9990
2 25860  98.1984 278.1220 0001877  92.2486 267.8938 14.76505675982028
SL-16 R/B               
1 25861U 99039B   17291.00832674  .00000058  00000-0  15380-4 0  9996
2 25861  98.1209 263.2488 0016748  49.6066 354.4918 14.78437683983929
TERRA                   
1 25994U 99068A   17291.32944667  .00000038  00000-0  18475-4 0  9992
2 25994  98.1992   4.5559 0001250  85.4803 274.6528 14.57123601948604
ENVISAT                 
1 27386U 02009A   17291.41475893 -.00000005  00000-0  12065-4 0  9992
2 27386  98.2182 331.4620 0001235  87.2303 272.9027 14.37905674818788
IDEFIX & ARIANE 42P R/B 
1 27422U 02021B   17291.44149618 -.00000024  00000-0  63783-5 0  9998
2 27422  98.2373 284.9472 0011314 227.7894 132.2330 14.29257540804281
AQUA                    
1 27424U 02022A   17291.57514755  .00000140  00000-0  41038-4 0  9999
2 27424  98.2142 231.0755 0002742  85.3658  22.6588 14.57115253822243
CZ-4B R/B               
1 27432U 02024C   17290.52683087 -.00000015  00000-0  15607-4 0  9994
2 27432  99.0033 264.8816 0051299  47.0811  90.9062 14.14051873796086
MIDORI II (ADEOS-II)    
1 27597U 02056A   17291.50253197  .00000062  00000-0  42267-4 0  9998
2 27597  98.3854 255.9196 0001163  33.8688 326.2568 14.27311201773015
H-2A R/B                
1 27601U 02056E   17290.85112147  .00000055  00000-0  35643-4 0  9992
2 27601  98.3639 354.3302 0071006 292.0242 199.2856 14.31802968775361
